NORAD_CAT_ID,OBJECT_NAME,OBJECT_TYPE,EPOCH,MEAN_MOTION,ECCENTRICITY,INCLINATION,RA_OF_ASC_NODE,ARG_OF_PERICENTER,MEAN_ANOMALY,BSTAR,MEAN_MOTION_DOT,MEAN_MOTION_DDOT,TLE_LINE0,TLE_LINE1,TLE_LINE2,SEMIMAJOR_AXIS,PERIOD,APOGEE,PERIGEE,DECAYED
53890.0,STARLINK-5050,PAYLOAD,2022-11-10 20:00:01,15.73177579,0.0004443,53.2176,19.5526,330.9794,158.3716,-0.00017738,-0.00025435,0.0,0 STARLINK-5050,1 53890U 22119E   22314.83334491 -.00025435  00000-0 -17738-3 0  9997,2 53890  53.2176  19.5526 0004443 330.9794 158.3716 15.73177579  7830,6727.959,91.534,352.81300000000016,346.835,0.0
53890.0,STARLINK-5050,PAYLOAD,2022-11-10 22:00:00,15.73188895,0.0004386999999999,53.2178,19.1397,329.8714,271.6994,-0.00040391,-0.00056936,0.0,0 STARLINK-5050,1 53890U 22119E   22314.91667824 -.00056936  00000-0 -40391-3 0  9996,2 53890  53.2178  19.1397 0004387 329.8714 271.6994 15.73188895  1306,6727.927,91.534,352.74300000000005,346.84,0.0
53890.0,STARLINK-5050,PAYLOAD,2022-11-11 14:00:01,15.73152757,0.0004626,53.218,15.8426,332.8506,86.49600000000002,0.00073706,0.00103945,0.0,0 STARLINK-5050,1 53890U 22119E   22315.58334491  .00103945  00000-0  73706-3 0  9998,2 53890  53.2180  15.8426 0004626 332.8506  86.4960 15.73152757  7954,6728.03,91.536,353.00699999999995,346.782,0.0
53890.0,STARLINK-5050,PAYLOAD,2022-11-11 22:00:00,15.73237657,0.0004543,53.2178,14.1913,331.2458,177.0244,-0.00019241,-0.00027601,0.0,0 STARLINK-5050,1 53890U 22119E   22315.91667824 -.00027601  00000-0 -19241-3 0  9994,2 53890  53.2178  14.1913 0004543 331.2458 177.0244 15.73237657  1309,6727.788000000001,91.531,352.709,346.596,0.0
53890.0,STARLINK-5050,PAYLOAD,2022-11-12 06:00:00,15.73233143,0.0004466,53.2176,12.542,331.3904,265.8352,0.00041709,0.00058432,0.0,0 STARLINK-5050,1 53890U 22119E   22316.25001157  .00058432  00000-0  41709-3 0  9991,2 53890  53.2176  12.5420 0004466 331.3904 265.8352 15.73233143  8054,6727.801,91.531,352.67,346.661,0.0
53890.0,STARLINK-5050,PAYLOAD,2022-11-12 14:00:01,15.73279458,0.000471,53.2172,10.8942,331.6944,354.5201,-0.00022818,-0.00032657,0.0,0 STARLINK-5050,1 53890U 22119E   22316.58334491 -.00032657  00000-0 -22818-3 0  9990,2 53890  53.2172  10.8942 0004710 331.6944 354.5201 15.73279458  1308,6727.669,91.529,352.702,346.365,0.0
53890.0,STARLINK-5050,PAYLOAD,2022-11-12 22:00:00,15.73244512,0.0004551,53.2173,9.2425,326.07,89.1639,-0.0006204,-0.00087025,0.0,0 STARLINK-5050,1 53890U 22119E   22316.91667824 -.00087025  00000-0 -62040-3 0  9996,2 53890  53.2173   9.2425 0004551 326.0700  89.1639 15.73244512  8168,6727.768,91.531,352.695,346.571,0.0
53890.0,STARLINK-5050,PAYLOAD,2022-11-13 14:00:01,15.73110069,0.0004883,53.2175,5.9454,325.0667,268.0007,0.00034573,0.00048017,0.0,0 STARLINK-5050,1 53890U 22119E   22317.58334491  .00048017  00000-0  34573-3 0  9997,2 53890  53.2175   5.9454 0004883 325.0667 268.0007 15.73110069  8261,6728.151999999999,91.538,353.302,346.731,0.0
53890.0,STARLINK-5050,PAYLOAD,2022-11-13 22:00:00,15.73128234,0.0004744,53.2174,4.2941,323.9935,357.9201,0.00059632,0.00083689,0.0,0 STARLINK-5050,1 53890U 22119E   22317.91667824  .00083689  00000-0  59632-3 0  9990,2 53890  53.2174   4.2941 0004744 323.9935 357.9201 15.73128234  1309,6728.1,91.537,353.157,346.773,0.0
53890.0,STARLINK-5050,PAYLOAD,2022-11-14 14:00:01,15.73237876,0.0004943,53.2168,0.9971,327.1385,172.5959,0.00020048,0.00027667,0.0,0 STARLINK-5050,1 53890U 22119E   22318.58334491  .00027667  00000-0  20048-3 0  9998,2 53890  53.2168   0.9971 0004943 327.1385 172.5959 15.73237876  8428,6727.7869999999975,91.531,352.978,346.327,0.0
53890.0,STARLINK-5050,PAYLOAD,2022-11-14 22:00:00,15.7321584,0.0004791,53.217,359.3442,323.6411,265.0545,-0.000299,-0.00042436,0.0,0 STARLINK-5050,1 53890U 22119E   22318.91667824 -.00042436  00000-0 -29900-3 0  9993,2 53890  53.2170 359.3442 0004791 323.6411 265.0545 15.73215840  8478,6727.85,91.532,352.93800000000016,346.492,0.0
53890.0,STARLINK-5050,PAYLOAD,2022-11-15 12:00:00,15.73210898,0.0005009,53.2173,356.4611,326.0165,328.2953,0.00016401,0.0002248,0.0,0 STARLINK-5050,1 53890U 22119E   22319.50001157  .00022480  00000-0  16401-3 0  9997,2 53890  53.2173 356.4611 0005009 326.0165 328.2953 15.73210898  8566,6727.864000000001,91.533,353.099,346.3590000000001,0.0
53890.0,STARLINK-5050,PAYLOAD,2022-11-15 14:00:01,15.73224049,0.0005072,53.217,356.0487,325.7673,80.7785,-1.426e-05,-2.631e-05,0.0,0 STARLINK-5050,1 53890U 22119E   22319.58334491 -.00002631  00000-0 -14260-4 0  9995,2 53890  53.2170 356.0487 0005072 325.7673  80.7785 15.73224049  1301,6727.8269999999975,91.532,353.10400000000016,346.279,0.0
53890.0,STARLINK-5050,PAYLOAD,2022-11-15 22:00:00,15.73205235,0.0004898,53.2172,354.3955,322.3669,173.1434,-0.00010093,-0.0001478,0.0,0 STARLINK-5050,1 53890U 22119E   22319.91667824 -.00014780  00000-0 -10093-3 0  9998,2 53890  53.2172 354.3955 0004898 322.3669 173.1434 15.73205235  1301,6727.88,91.533,353.041,346.45,0.0
53890.0,STARLINK-5050,PAYLOAD,2022-11-16 04:00:00,15.73203185,0.000477,53.2171,353.1551,322.6217,149.5873,-0.00017492,-0.00025122,0.0,0 STARLINK-5050,1 53890U 22119E   22320.16667824 -.00025122  00000-0 -17492-3 0  9999,2 53890  53.2171 353.1551 0004770 322.6217 149.5873 15.73203185  8673,6727.886,91.533,352.96,346.542,0.0
53890.0,STARLINK-5050,PAYLOAD,2022-11-16 14:00:01,15.73170977,0.0004878999999999,53.2169,351.0905,325.404,348.0219,0.00037454,0.00052233,0.0,0 STARLINK-5050,1 53890U 22119E   22320.58335648  .00052233  00000-0  37454-3 0  9992,2 53890  53.2169 351.0905 0004879 325.4040 348.0219 15.73170977  1300,6727.978,91.535,353.126,346.56,0.0
53890.0,STARLINK-5050,PAYLOAD,2022-11-16 20:00:01,15.73205977,0.000471,53.2174,349.8489,324.8599,325.1862,-2.5045e-05,-4.142e-05,0.0,0 STARLINK-5050,1 53890U 22119E   22320.83334491 -.00004142  00000-0 -25045-4 0  9997,2 53890  53.2174 349.8489 0004710 324.8599 325.1862 15.73205977  8771,6727.878000000002,91.533,352.912,346.574,0.0
53890.0,STARLINK-5050,PAYLOAD,2022-11-16 22:00:08,15.73201661,0.000469,53.2173,349.4356,324.7816,77.9591,3.3771e-05,4.119e-05,0.0,0 STARLINK-5050,1 53890U 22119E   22320.91675926  .00004119  00000-0  33771-4 0  9994,2 53890  53.2173 349.4356 0004690 324.7816  77.9591 15.73201661  1306,6727.89,91.533,352.911,346.6,0.0
53890.0,STARLINK-5050,PAYLOAD,2022-11-17 14:00:01,15.73132384,0.0005211,53.2165,346.1519,322.1744,257.9992,0.00054613,0.00076551,0.0,0 STARLINK-5050,1 53890U 22119E   22321.58334491  .00076551  00000-0  54613-3 0  9993,2 53890  53.2165 346.1519 0005211 322.1744 257.9992 15.73132384  1304,6728.0880000000025,91.537,353.459,346.44699999999995,0.0
53890.0,STARLINK-5050,PAYLOAD,2022-11-17 22:00:00,15.73162116,0.0005042,53.2166,344.5005,321.6812,347.3822,0.00065887,0.00092776,0.0,0 STARLINK-5050,1 53890U 22119E   22321.91667824  .00092776  00000-0  65887-3 0  9991,2 53890  53.2166 344.5005 0005042 321.6812 347.3822 15.73162116  1301,6728.003000000002,91.535,353.26,346.476,0.0
53890.0,STARLINK-5050,PAYLOAD,2022-11-18 04:00:00,15.73252972,0.0004992,53.2166,343.2641,322.111,323.6281,-0.00055378,-0.0007787,0.0,0 STARLINK-5050,1 53890U 22119E   22322.16667824 -.00077870  00000-0 -55378-3 0  9993,2 53890  53.2166 343.2641 0004992 322.1110 323.6281 15.73252972  8980,6727.744000000002,91.53,352.968,346.251,0.0
53890.0,STARLINK-5050,PAYLOAD,2022-11-18 14:00:01,15.73184884,0.0005232,53.2157,341.2036,323.9238,162.9897,0.00043487,0.00060852,0.0,0 STARLINK-5050,1 53890U 22119E   22322.58334491  .00060852  00000-0  43487-3 0  9998,2 53890  53.2157 341.2036 0005232 323.9238 162.9897 15.73184884  1306,6727.938,91.534,353.3230000000001,346.283,0.0
53890.0,STARLINK-5050,PAYLOAD,2022-11-18 20:00:01,15.73228175,0.0005063,53.2159,339.9649,322.0887,141.5233,-0.00011337,-0.00016538,0.0,0 STARLINK-5050,1 53890U 22119E   22322.83334491 -.00016538  00000-0 -11337-3 0  9999,2 53890  53.2159 339.9649 0005063 322.0887 141.5233 15.73228175  9097,6727.815,91.532,353.086,346.274,0.0
53890.0,STARLINK-5050,PAYLOAD,2022-11-18 22:00:00,15.73226363,0.0005016,53.2158,339.5521,321.8607,253.9971,-5.7055e-05,-8.641e-05,0.0,0 STARLINK-5050,1 53890U 22119E   22322.91667824 -.00008641  00000-0 -57055-4 0  9991,2 53890  53.2158 339.5521 0005016 321.8607 253.9971 15.73226363  1306,6727.82,91.532,353.06,346.31,0.0
53890.0,STARLINK-5050,PAYLOAD,2022-11-19 14:00:01,15.73263711,0.0005283999999999,53.2157,336.2549,323.1421,70.6741,-0.00046557,-0.00065696,0.0,0 STARLINK-5050,1 53890U 22119E   22323.58334491 -.00065696  00000-0 -46557-3 0  9993,2 53890  53.2157 336.2549 0005284 323.1421  70.6741 15.73263711  9209,6727.714,91.529,353.1330000000001,346.024,0.0
53890.0,STARLINK-5050,PAYLOAD,2022-11-19 22:00:00,15.73214871,0.0005073,53.2157,334.6034,320.6548,162.1398,9.0889e-05,0.00012165,0.0,0 STARLINK-5050,1 53890U 22119E   22323.91667824  .00012165  00000-0  90889-4 0  9998,2 53890  53.2157 334.6034 0005073 320.6548 162.1398 15.73214871  1309,6727.853,91.532,353.131,346.305,0.0
53890.0,STARLINK-5050,PAYLOAD,2022-11-20 06:00:00,15.73206918,0.000518,53.2154,332.9554,321.5442,250.2084,1.553e-05,1.555e-05,0.0,0 STARLINK-5050,1 53890U 22119E   22324.25001157  .00001555  00000-0  15530-4 0  9998,2 53890  53.2154 332.9554 0005180 321.5442 250.2084 15.73206918  9319,6727.875,91.533,353.225,346.255,0.0
53890.0,STARLINK-5050,PAYLOAD,2022-11-20 14:00:01,15.73199812,0.0005292,53.2147,331.3061,320.7811,339.9084,-0.00020727,-0.00029638,0.0,0 STARLINK-5050,1 53890U 22119E   22324.58334491 -.00029638  00000-0 -20727-3 0  9991,2 53890  53.2147 331.3061 0005292 320.7811 339.9084 15.73199812  1302,6727.896,91.533,353.321,346.2,0.0
53890.0,STARLINK-5050,PAYLOAD,2022-11-20 22:00:00,15.73154749,0.000509,53.2148,329.6546,317.6098,72.00399999999998,9.7824e-05,0.00013108,0.0,0 STARLINK-5050,1 53890U 22119E   22324.91667824  .00013108  00000-0  97824-4 0  9993,2 53890  53.2148 329.6546 0005090 317.6098  72.0040 15.73154749  9416,6728.024,91.536,353.314,346.465,0.0
